{
  "type": "FeatureCollection",
  "features": [
    {
      "type": "Feature",
      "properties": {
        "norad_id": 66927,
        "name": "STARLINK-35943",
        "group": "last-30-days",
        "lat": -51.91435598585596,
        "lon": -107.77864759620235,
        "alt_km": 362.4089481083338,
        "timestamp": "2025-12-22T23:36:19.412362+00:00",
        "meta_object_name": "STARLINK-35943",
        "meta_object_id": "2025-286C",
        "meta_epoch": "2025-12-22T20:00:01.999008",
        "meta_mean_motion": 15.71330706,
        "meta_eccentricity": 0.0001139,
        "meta_inclination": 53.1593,
        "meta_ra_of_asc_node": 359.8888,
        "meta_arg_of_pericenter": 91.4517,
        "meta_mean_anomaly": 38.2023,
        "meta_ephemeris_type": 0,
        "meta_classification_type": "U",
        "meta_norad_cat_id": 66927,
        "meta_element_set_no": 999,
        "meta_rev_at_epoch": 361,
        "meta_bstar": -0.016864,
        "meta_mean_motion_dot": -0.01937626,
        "meta_mean_motion_ddot": 0,
        "tle_line1": "1 66927U 25286C   25356.83335647 -.01937626  00000+0 -16864-1 0  9994",
        "tle_line2": "2 66927  53.1593 359.8888 0001139  91.4517  38.2023 15.71330706  3619"
      },
      "geometry": {
        "type": "Point",
        "coordinates": [
          -107.77864759620235,
          -51.91435598585596
        ]
      }
    },
    {
      "type": "Feature",
      "properties": {
        "norad_id": 66928,
        "name": "STARLINK-35944",
        "group": "last-30-days",
        "lat": -50.87297751791168,
        "lon": -113.67290354084122,
        "alt_km": 362.3440658240788,
        "timestamp": "2025-12-22T23:36:19.412371+00:00",
        "meta_object_name": "STARLINK-35944",
        "meta_object_id": "2025-286D",
        "meta_epoch": "2025-12-22T20:00:01.999008",
        "meta_mean_motion": 15.71334917,
        "meta_eccentricity": 0.0001128,
        "meta_inclination": 53.1593,
        "meta_ra_of_asc_node": 359.8965,
        "meta_arg_of_pericenter": 93.9131,
        "meta_mean_anomaly": 31.9048,
        "meta_ephemeris_type": 0,
        "meta_classification_type": "U",
        "meta_norad_cat_id": 66928,
        "meta_element_set_no": 999,
        "meta_rev_at_epoch": 361,
        "meta_bstar": -0.016919,
        "meta_mean_motion_dot": -0.01943452,
        "meta_mean_motion_ddot": 0,
        "tle_line1": "1 66928U 25286D   25356.83335647 -.01943452  00000+0 -16919-1 0  9990",
        "tle_line2": "2 66928  53.1593 359.8965 0001128  93.9131  31.9048 15.71334917  3618"
      },
      "geometry": {
        "type": "Point",
        "coordinates": [
          -113.67290354084122,
          -50.87297751791168
        ]
      }
    },
    {
      "type": "Feature",
      "properties": {
        "norad_id": 66929,
        "name": "STARLINK-36169",
        "group": "last-30-days",
        "lat": -52.32051979542646,
        "lon": -104.74182134525574,
        "alt_km": 362.4586639757599,
        "timestamp": "2025-12-22T23:36:19.412383+00:00",
        "meta_object_name": "STARLINK-36169",
        "meta_object_id": "2025-286E",
        "meta_epoch": "2025-12-22T20:00:01.999008",
        "meta_mean_motion": 15.71333565,
        "meta_eccentricity": 0.0001179,
        "meta_inclination": 53.1592,
        "meta_ra_of_asc_node": 359.884,
        "meta_arg_of_pericenter": 84.8751,
        "meta_mean_anomaly": 46.6945,
        "meta_ephemeris_type": 0,
        "meta_classification_type": "U",
        "meta_norad_cat_id": 66929,
        "meta_element_set_no": 999,
        "meta_rev_at_epoch": 361,
        "meta_bstar": -0.016901,
        "meta_mean_motion_dot": -0.01941644,
        "meta_mean_motion_ddot": 0,
        "tle_line1": "1 66929U 25286E   25356.83335647 -.01941644  00000+0 -16901-1 0  9993",
        "tle_line2": "2 66929  53.1592 359.8840 0001179  84.8751  46.6945 15.71333565  3610"
      },
      "geometry": {
        "type": "Point",
        "coordinates": [
          -104.74182134525574,
          -52.32051979542646
        ]
      }
    },
    {
      "type": "Feature",
      "properties": {
        "norad_id": 66930,
        "name": "STARLINK-36206",
        "group": "last-30-days",
        "lat": -52.64749640589744,
        "lon": -101.65212089619548,
        "alt_km": 362.368758833034,
        "timestamp": "2025-12-22T23:36:19.412393+00:00",
        "meta_object_name": "STARLINK-36206",
        "meta_object_id": "2025-286F",
        "meta_epoch": "2025-12-22T20:00:01.999008",
        "meta_mean_motion": 15.71327175,
        "meta_eccentricity": 0.0001017,
        "meta_inclination": 53.1593,
        "meta_ra_of_asc_node": 359.8804,
        "meta_arg_of_pericenter": 82.0943,
        "meta_mean_anomaly": 51.3945,
        "meta_ephemeris_type": 0,
        "meta_classification_type": "U",
        "meta_norad_cat_id": 66930,
        "meta_element_set_no": 999,
        "meta_rev_at_epoch": 361,
        "meta_bstar": -0.016823,
        "meta_mean_motion_dot": -0.01933078,
        "meta_mean_motion_ddot": 0,
        "tle_line1": "1 66930U 25286F   25356.83335647 -.01933078  00000+0 -16823-1 0  9990",
        "tle_line2": "2 66930  53.1593 359.8804 0001017  82.0943  51.3945 15.71327175  3610"
      },
      "geometry": {
        "type": "Point",
        "coordinates": [
          -101.65212089619548,
          -52.64749640589744
        ]
      }
    },
    {
      "type": "Feature",
      "properties": {
        "norad_id": 66931,
        "name": "STARLINK-36130",
        "group": "last-30-days",
        "lat": -52.8929229236112,
        "lon": -98.517515262058,
        "alt_km": 362.39956346535473,
        "timestamp": "2025-12-22T23:36:19.412403+00:00",
        "meta_object_name": "STARLINK-36130",
        "meta_object_id": "2025-286G",
        "meta_epoch": "2025-12-22T20:00:01.999008",
        "meta_mean_motion": 15.71324303,
        "meta_eccentricity": 0.0001049,
        "meta_inclination": 53.1592,
        "meta_ra_of_asc_node": 359.8762,
        "meta_arg_of_pericenter": 88.3703,
        "meta_mean_anomaly": 47.0371,
        "meta_ephemeris_type": 0,
        "meta_classification_type": "U",
        "meta_norad_cat_id": 66931,
        "meta_element_set_no": 999,
        "meta_rev_at_epoch": 361,
        "meta_bstar": -0.016785,
        "meta_mean_motion_dot": -0.01929013,
        "meta_mean_motion_ddot": 0,
        "tle_line1": "1 66931U 25286G   25356.83335647 -.01929013  00000+0 -16785-1 0  9992",
        "tle_line2": "2 66931  53.1592 359.8762 0001049  88.3703  47.0371 15.71324303  3616"
      },
      "geometry": {
        "type": "Point",
        "coordinates": [
          -98.517515262058,
          -52.8929229236112
        ]
      }
    },
    {
      "type": "Feature",
      "properties": {
        "norad_id": 66932,
        "name": "STARLINK-36177",
        "group": "last-30-days",
        "lat": -53.05483259223735,
        "lon": -95.359450127948,
        "alt_km": 362.5262627225311,
        "timestamp": "2025-12-22T23:36:19.412412+00:00",
        "meta_object_name": "STARLINK-36177",
        "meta_object_id": "2025-286H",
        "meta_epoch": "2025-12-22T20:00:01.999008",
        "meta_mean_motion": 15.71334249,
        "meta_eccentricity": 0.0001253,
        "meta_inclination": 53.1594,
        "meta_ra_of_asc_node": 359.8723,
        "meta_arg_of_pericenter": 83.5808,
        "meta_mean_anomaly": 53.7386,
        "meta_ephemeris_type": 0,
        "meta_classification_type": "U",
        "meta_norad_cat_id": 66932,
        "meta_element_set_no": 999,
        "meta_rev_at_epoch": 361,
        "meta_bstar": -0.016911,
        "meta_mean_motion_dot": -0.01942709,
        "meta_mean_motion_ddot": 0,
        "tle_line1": "1 66932U 25286H   25356.83335647 -.01942709  00000+0 -16911-1 0  9991",
        "tle_line2": "2 66932  53.1594 359.8723 0001253  83.5808  53.7386 15.71334249  3616"
      },
      "geometry": {
        "type": "Point",
        "coordinates": [
          -95.359450127948,
          -53.05483259223735
        ]
      }
    },
    {
      "type": "Feature",
      "properties": {
        "norad_id": 66933,
        "name": "STARLINK-36157",
        "group": "last-30-days",
        "lat": -53.13222700313791,
        "lon": -92.18074583097962,
        "alt_km": 362.3805435029326,
        "timestamp": "2025-12-22T23:36:19.412422+00:00",
        "meta_object_name": "STARLINK-36157",
        "meta_object_id": "2025-286J",
        "meta_epoch": "2025-12-22T20:00:01.999008",
        "meta_mean_motion": 15.71326777,
        "meta_eccentricity": 0.0001024,
        "meta_inclination": 53.1594,
        "meta_ra_of_asc_node": 359.8682,
        "meta_arg_of_pericenter": 81.9503,
        "meta_mean_anomaly": 57.2892,
        "meta_ephemeris_type": 0,
        "meta_classification_type": "U",
        "meta_norad_cat_id": 66933,
        "meta_element_set_no": 999,
        "meta_rev_at_epoch": 361,
        "meta_bstar": -0.016817,
        "meta_mean_motion_dot": -0.01932455,
        "meta_mean_motion_ddot": 0,
        "tle_line1": "1 66933U 25286J   25356.83335647 -.01932455  00000+0 -16817-1 0  9994",
        "tle_line2": "2 66933  53.1594 359.8682 0001024  81.9503  57.2892 15.71326777  3619"
      },
      "geometry": {
        "type": "Point",
        "coordinates": [
          -92.18074583097962,
          -53.13222700313791
        ]
      }
    }
  ]
}